[{"name": "Afghanistan", "ccn3": 4, "cca3": "AFG", "cca2": "AF", "latlng": [33, 65], "languages": ["ps", "uz", "tk"], "currency": "AFN", "subregion": "Southern Asia", "callingcode": "93", "tld": ".af", "relevance": 0, "region": "Asia", "nationality": "Afghan", "capital": "Kabul", "altSpellings": "AF,Af\u0121\u0101nist\u0101n"}, {"name": "\u00c5land Islands", "ccn3": 248, "cca3": "ALA", "cca2": "AX", "latlng": [null, null], "languages": ["sv"], "currency": "EUR", "subregion": "Northern Europe", "callingcode": "358", "tld": ".ax", "relevance": 0.5, "region": "Europe", "nationality": "Swedish", "capital": "Mariehamn", "altSpellings": "AX,Aaland,Aland"}, {"name": "Albania", "ccn3": 8, "cca3": "ALB", "cca2": "AL", "latlng": [41, 20], "languages": ["sq"], "currency": "ALL", "subregion": "Southern Europe", "callingcode": "355", "tld": ".al", "relevance": 0, "region": "Europe", "nationality": "Albanian", "capital": "Tirana", "altSpellings": "AL,Shqip\u00ebri,Shqip\u00ebria,Shqipnia"}, {"name": "Algeria", "ccn3": 12, "cca3": "DZA", "cca2": "DZ", "latlng": [28, 3], "languages": ["ar"], "currency": "DZD", "subregion": "Northern Africa", "callingcode": "213", "tld": ".dz", "relevance": 0, "region": "Africa", "nationality": "Algerian", "capital": "Algiers", "altSpellings": "DZ,al-Jaz\u0101'ir"}, {"name": "American Samoa", "ccn3": 16, "cca3": "ASM", "cca2": "AS", "latlng": [-14.33333333, -170], "languages": ["en", "sm"], "currency": "USD", "subregion": "Polynesia", "callingcode": "1684", "tld": ".as", "relevance": 0.5, "region": "Oceania", "nationality": "American Samoan", "capital": "Pago Pago", "altSpellings": "AS,Amerika S\u0101moa"}, {"name": "Andorra", "ccn3": 20, "cca3": "AND", "cca2": "AD", "latlng": [42.5, 1.5], "languages": ["ca"], "currency": "EUR", "subregion": "Southern Europe", "callingcode": "376", "tld": ".ad", "relevance": 0.5, "region": "Europe", "nationality": "Andorran", "capital": "Andorra la Vella", "altSpellings": "AD"}, {"name": "Angola", "ccn3": 24, "cca3": "AGO", "cca2": "AO", "latlng": [-12.5, 18.5], "languages": ["pt"], "currency": "AOA", "subregion": "Middle Africa", "callingcode": "244", "tld": ".ao", "relevance": 0, "region": "Africa", "nationality": "Angolan", "capital": "Luanda", "altSpellings": "AO"}, {"name": "Anguilla", "ccn3": 660, "cca3": "AIA", "cca2": "AI", "latlng": [18.25, -63.16666666], "languages": ["en"], "currency": "XCD", "subregion": "Caribbean", "callingcode": "1264", "tld": ".ai", "relevance": 0.5, "region": "Americas", "nationality": "Anguillian", "capital": "The Valley", "altSpellings": "AI"}, {"name": "Antarctica", "ccn3": 10, "cca3": "ATA", "cca2": "AQ", "latlng": [-90, 0], "languages": [], "currency": "", "subregion": "", "callingcode": "", "tld": ".aq", "relevance": 0.5, "region": "", "nationality": "", "capital": "", "altSpellings": "AQ"}, {"name": "Antigua and Barbuda", "ccn3": 28, "cca3": "ATG", "cca2": "AG", "latlng": [17.05, -61.8], "languages": ["en"], "currency": "XCD", "subregion": "Caribbean", "callingcode": "1268", "tld": ".ag", "relevance": 0.5, "region": "Americas", "nationality": "Antiguan, Barbudan", "capital": "Saint John's", "altSpellings": "AG"}, {"name": "Argentina", "ccn3": 32, "cca3": "ARG", "cca2": "AR", "latlng": [-34, -64], "languages": ["es", "gn"], "currency": "ARS", "subregion": "South America", "callingcode": "54", "tld": ".ar", "relevance": 0, "region": "Americas", "nationality": "Argentinean", "capital": "Buenos Aires", "altSpellings": "AR"}, {"name": "Armenia", "ccn3": 51, "cca3": "ARM", "cca2": "AM", "latlng": [40, 45], "languages": ["hy", "ru"], "currency": "AMD", "subregion": "Western Asia", "callingcode": "374", "tld": ".am", "relevance": 0, "region": "Asia", "nationality": "Armenian", "capital": "Yerevan", "altSpellings": "AM,Hayastan"}, {"name": "Aruba", "ccn3": 533, "cca3": "ABW", "cca2": "AW", "latlng": [12.5, -69.96666666], "languages": ["nl"], "currency": "AWG", "subregion": "Caribbean", "callingcode": "297", "tld": ".aw", "relevance": 0.5, "region": "Americas", "nationality": "Aruban", "capital": "Oranjestad", "altSpellings": "AW"}, {"name": "Australia", "ccn3": 36, "cca3": "AUS", "cca2": "AU", "latlng": [-27, 133], "languages": ["en"], "currency": "AUD", "subregion": "Australia,New Zealand", "callingcode": "61", "tld": ".au", "relevance": 1.5, "region": "Oceania", "nationality": "Australian", "capital": "Canberra", "altSpellings": "AU"}, {"name": "Austria", "ccn3": 40, "cca3": "AUT", "cca2": "AT", "latlng": [47.33333333, 13.33333333], "languages": ["de"], "currency": "EUR", "subregion": "Western Europe", "callingcode": "43", "tld": ".at", "relevance": 0, "region": "Europe", "nationality": "Austrian", "capital": "Vienna", "altSpellings": "AT,\u00d6sterreich,Osterreich,Oesterreich"}, {"name": "Azerbaijan", "ccn3": 31, "cca3": "AZE", "cca2": "AZ", "latlng": [40.5, 47.5], "languages": ["az", "hy"], "currency": "AZN", "subregion": "Western Asia", "callingcode": "994", "tld": ".az", "relevance": 0, "region": "Asia", "nationality": "Azerbaijani", "capital": "Baku", "altSpellings": "AZ"}, {"name": "Bahamas", "ccn3": 44, "cca3": "BHS", "cca2": "BS", "latlng": [24.25, -76], "languages": ["en"], "currency": "BSD", "subregion": "Caribbean", "callingcode": "1242", "tld": ".bs", "relevance": 0, "region": "Americas", "nationality": "Bahamian", "capital": "Nassau", "altSpellings": "BS"}, {"name": "Bahrain", "ccn3": 48, "cca3": "BHR", "cca2": "BH", "latlng": [26, 50.55], "languages": ["ar"], "currency": "BHD", "subregion": "Western Asia", "callingcode": "973", "tld": ".bh", "relevance": 0, "region": "Asia", "nationality": "Bahraini", "capital": "Manama", "altSpellings": "BH"}, {"name": "Bangladesh", "ccn3": 50, "cca3": "BGD", "cca2": "BD", "latlng": [24, 90], "languages": ["bn"], "currency": "BDT", "subregion": "Southern Asia", "callingcode": "880", "tld": ".bd", "relevance": 2, "region": "Asia", "nationality": "Bangladeshi", "capital": "Dhaka", "altSpellings": "BD"}, {"name": "Barbados", "ccn3": 52, "cca3": "BRB", "cca2": "BB", "latlng": [13.16666666, -59.53333333], "languages": ["en"], "currency": "BBD", "subregion": "Caribbean", "callingcode": "1246", "tld": ".bb", "relevance": 0, "region": "Americas", "nationality": "Barbadian", "capital": "Bridgetown", "altSpellings": "BB"}, {"name": "Belarus", "ccn3": 112, "cca3": "BLR", "cca2": "BY", "latlng": [53, 28], "languages": ["be", "ru"], "currency": "BYR", "subregion": "Eastern Europe", "callingcode": "375", "tld": ".by", "relevance": 0, "region": "Europe", "nationality": "Belarusian", "capital": "Minsk", "altSpellings": "BY"}, {"name": "Belgium", "ccn3": 56, "cca3": "BEL", "cca2": "BE", "latlng": [50.83333333, 4], "languages": ["nl", "fr", "de"], "currency": "EUR", "subregion": "Western Europe", "callingcode": "32", "tld": ".be", "relevance": 1.5, "region": "Europe", "nationality": "Belgian", "capital": "Brussels", "altSpellings": "BE,Belgi\u00eb,Belgie,Belgien,Belgique"}, {"name": "Belize", "ccn3": 84, "cca3": "BLZ", "cca2": "BZ", "latlng": [17.25, -88.75], "languages": ["en", "es"], "currency": "BZD", "subregion": "Central America", "callingcode": "501", "tld": ".bz", "relevance": 0, "region": "Americas", "nationality": "Belizean", "capital": "Belmopan", "altSpellings": "BZ"}, {"name": "Benin", "ccn3": 204, "cca3": "BEN", "cca2": "BJ", "latlng": [9.5, 2.25], "languages": ["fr"], "currency": "XOF", "subregion": "Western Africa", "callingcode": "229", "tld": ".bj", "relevance": 0, "region": "Africa", "nationality": "Beninese", "capital": "Porto-Novo", "altSpellings": "BJ"}, {"name": "Bermuda", "ccn3": 60, "cca3": "BMU", "cca2": "BM", "latlng": [32.33333333, -64.75], "languages": ["en"], "currency": "BMD", "subregion": "Northern America", "callingcode": "1441", "tld": ".bm", "relevance": 0.5, "region": "Americas", "nationality": "Bermudian", "capital": "Hamilton", "altSpellings": "BM"}, {"name": "Bhutan", "ccn3": 64, "cca3": "BTN", "cca2": "BT", "latlng": [27.5, 90.5], "languages": ["dz"], "currency": "BTN,INR", "subregion": "Southern Asia", "callingcode": "975", "tld": ".bt", "relevance": 0, "region": "Asia", "nationality": "Bhutanese", "capital": "Thimphu", "altSpellings": "BT"}, {"name": "Bolivia", "ccn3": 68, "cca3": "BOL", "cca2": "BO", "latlng": [-17, -65], "languages": ["es", "ay", "qu"], "currency": "BOB,BOV", "subregion": "South America", "callingcode": "591", "tld": ".bo", "relevance": 0, "region": "Americas", "nationality": "Bolivian", "capital": "Sucre", "altSpellings": "BO"}, {"name": "Bonaire", "ccn3": 535, "cca3": "BES", "cca2": "BQ", "latlng": [null, null], "languages": ["nl", "en"], "currency": "USD", "subregion": "", "callingcode": "5997", "tld": ".bq", "relevance": 0, "region": "", "nationality": "Dutch", "capital": "Kralendijk", "altSpellings": "BQ"}, {"name": "Bosnia and Herzegovina", "ccn3": 70, "cca3": "BIH", "cca2": "BA", "latlng": [44, 18], "languages": ["bs", "hr", "sr"], "currency": "BAM", "subregion": "Southern Europe", "callingcode": "387", "tld": ".ba", "relevance": 0, "region": "Europe", "nationality": "Bosnian, Herzegovinian", "capital": "Sarajevo", "altSpellings": "BA"}, {"name": "Botswana", "ccn3": 72, "cca3": "BWA", "cca2": "BW", "latlng": [-22, 24], "languages": ["en", "tn"], "currency": "BWP", "subregion": "Southern Africa", "callingcode": "267", "tld": ".bw", "relevance": 0, "region": "Africa", "nationality": "Motswana", "capital": "Gaborone", "altSpellings": "BW"}, {"name": "Bouvet Island", "ccn3": 74, "cca3": "BVT", "cca2": "BV", "latlng": [-54.43333333, 3.4], "languages": [], "currency": "NOK", "subregion": "", "callingcode": "", "tld": ".bv", "relevance": 0, "region": "", "nationality": "", "capital": "", "altSpellings": "BV,Bouvet\u00f8ya"}, {"name": "Brazil", "ccn3": 76, "cca3": "BRA", "cca2": "BR", "latlng": [-10, -55], "languages": ["pt"], "currency": "BRL", "subregion": "South America", "callingcode": "55", "tld": ".br", "relevance": 2, "region": "Americas", "nationality": "Brazilian", "capital": "Bras\u00edlia", "altSpellings": "BR,Brasil"}, {"name": "British Indian Ocean Territory", "ccn3": 86, "cca3": "IOT", "cca2": "IO", "latlng": [-6, 71.5], "languages": ["en"], "currency": "USD", "subregion": "Eastern Africa", "callingcode": "246", "tld": ".io", "relevance": 0, "region": "Africa", "nationality": "Indian", "capital": "", "altSpellings": "IO"}, {"name": "Brunei Darussalam", "ccn3": 96, "cca3": "BRN", "cca2": "BN", "latlng": [4.5, 114.66666666], "languages": ["ms"], "currency": "BND", "subregion": "South-Eastern,Asia", "callingcode": "673", "tld": ".bn", "relevance": 0, "region": "Asia", "nationality": "Bruneian", "capital": "Bandar Seri Begawan", "altSpellings": "BN"}, {"name": "Bulgaria", "ccn3": 100, "cca3": "BGR", "cca2": "BG", "latlng": [43, 25], "languages": ["bg"], "currency": "BGN", "subregion": "Eastern Europe", "callingcode": "359", "tld": ".bg", "relevance": 0, "region": "Europe", "nationality": "Bulgarian", "capital": "Sofia", "altSpellings": "BG"}, {"name": "Burkina Faso", "ccn3": 854, "cca3": "BFA", "cca2": "BF", "latlng": [13, -2], "languages": ["fr", "ff"], "currency": "XOF", "subregion": "Western Africa", "callingcode": "226", "tld": ".bf", "relevance": 0, "region": "Africa", "nationality": "Burkinabe", "capital": "Ouagadougou", "altSpellings": "BF"}, {"name": "Burundi", "ccn3": 108, "cca3": "BDI", "cca2": "BI", "latlng": [-3.5, 30], "languages": ["fr", "rn"], "currency": "BIF", "subregion": "Eastern Africa", "callingcode": "257", "tld": ".bi", "relevance": 0, "region": "Africa", "nationality": "Burundian", "capital": "Bujumbura", "altSpellings": "BI"}, {"name": "Cambodia", "ccn3": 116, "cca3": "KHM", "cca2": "KH", "latlng": [13, 105], "languages": ["km"], "currency": "KHR", "subregion": "South-Eastern,Asia", "callingcode": "855", "tld": ".kh", "relevance": 0, "region": "Asia", "nationality": "Cambodian", "capital": "Phnom Penh", "altSpellings": "KH"}, {"name": "Cameroon", "ccn3": 120, "cca3": "CMR", "cca2": "CM", "latlng": [6, 12], "languages": ["en", "fr"], "currency": "XAF", "subregion": "Middle Africa", "callingcode": "237", "tld": ".cm", "relevance": 0, "region": "Africa", "nationality": "Cameroonian", "capital": "Yaound\u00e9", "altSpellings": "CM"}, {"name": "Canada", "ccn3": 124, "cca3": "CAN", "cca2": "CA", "latlng": [60, -95], "languages": ["en", "fr"], "currency": "CAD", "subregion": "Northern America", "callingcode": "1", "tld": ".ca", "relevance": 2, "region": "Americas", "nationality": "Canadian", "capital": "Ottawa", "altSpellings": "CA"}, {"name": "Cape Verde", "ccn3": 132, "cca3": "CPV", "cca2": "CV", "latlng": [16, -24], "languages": ["pt"], "currency": "CVE", "subregion": "Western Africa", "callingcode": "238", "tld": ".cv", "relevance": 0, "region": "Africa", "nationality": "Cape Verdian", "capital": "Praia", "altSpellings": "CV,Cabo"}, {"name": "Cayman Islands", "ccn3": 136, "cca3": "CYM", "cca2": "KY", "latlng": [19.5, -80.5], "languages": ["en"], "currency": "KYD", "subregion": "Caribbean", "callingcode": "1345", "tld": ".ky", "relevance": 0.5, "region": "Americas", "nationality": "Caymanian", "capital": "George Town", "altSpellings": "KY"}, {"name": "Central African Republic", "ccn3": 140, "cca3": "CAF", "cca2": "CF", "latlng": [7, 21], "languages": ["fr", "sg"], "currency": "XAF", "subregion": "Middle Africa", "callingcode": "236", "tld": ".cf", "relevance": 0, "region": "Africa", "nationality": "Central African", "capital": "Bangui", "altSpellings": "CF"}, {"name": "Chad", "ccn3": 148, "cca3": "TCD", "cca2": "TD", "latlng": [15, 19], "languages": ["ar", "fr"], "currency": "XAF", "subregion": "Middle Africa", "callingcode": "235", "tld": ".td", "relevance": 0, "region": "Africa", "nationality": "Chadian", "capital": "N'Djamena", "altSpellings": "TD,Tchad"}, {"name": "Chile", "ccn3": 152, "cca3": "CHL", "cca2": "CL", "latlng": [-30, -71], "languages": ["es"], "currency": "CLF,CLP", "subregion": "South America", "callingcode": "56", "tld": ".cl", "relevance": 0, "region": "Americas", "nationality": "Chilean", "capital": "Santiago", "altSpellings": "CL"}, {"name": "China", "ccn3": 156, "cca3": "CHN", "cca2": "CN", "latlng": [35, 105], "languages": ["zh"], "currency": "CNY", "subregion": "Eastern Asia", "callingcode": "86", "tld": ".cn", "relevance": 0, "region": "Asia", "nationality": "Chinese", "capital": "Beijing", "altSpellings": "CN,Zhongguo,Zhonghua,Peoples Republic"}, {"name": "Christmas Island", "ccn3": 162, "cca3": "CXR", "cca2": "CX", "latlng": [-10.5, 105.66666666], "languages": ["en", "zh", "ms"], "currency": "AUD", "subregion": "Australia,New Zealand", "callingcode": "61", "tld": ".cx", "relevance": 0.5, "region": "Oceania", "nationality": "Christmas Island", "capital": "Flying Fish Cove", "altSpellings": "CX"}, {"name": "Cocos (Keeling) Islands", "ccn3": 166, "cca3": "CCK", "cca2": "CC", "latlng": [-12.5, 96.83333333], "languages": ["en"], "currency": "AUD", "subregion": "Australia,New Zealand", "callingcode": "61", "tld": ".cc", "relevance": 0, "region": "Oceania", "nationality": "Cocos Islander", "capital": "West Island", "altSpellings": "CC"}, {"name": "Colombia", "ccn3": 170, "cca3": "COL", "cca2": "CO", "latlng": [4, -72], "languages": ["es"], "currency": "COP,COU", "subregion": "South America", "callingcode": "57", "tld": ".co", "relevance": 0, "region": "Americas", "nationality": "Colombian", "capital": "Bogot\u00e1", "altSpellings": "CO"}, {"name": "Comoros", "ccn3": 174, "cca3": "COM", "cca2": "KM", "latlng": [-12.16666666, 44.25], "languages": ["ar", "fr"], "currency": "KMF", "subregion": "Eastern Africa", "callingcode": "269", "tld": ".km", "relevance": 0, "region": "Africa", "nationality": "Comoran", "capital": "Moroni", "altSpellings": "KM"}, {"name": "Republic of the Congo", "ccn3": 178, "cca3": "COG", "cca2": "CG", "latlng": [-1, 15], "languages": ["fr", "ln"], "currency": "XAF", "subregion": "Middle Africa", "callingcode": "242", "tld": ".cg", "relevance": 0, "region": "Africa", "nationality": "Congolese", "capital": "Brazzaville", "altSpellings": "CG"}, {"name": "Democratic Republic of the Congo", "ccn3": 180, "cca3": "COD", "cca2": "CD", "latlng": [0, 25], "languages": ["fr", "ln", "kg", "sw", "lu"], "currency": "CDF", "subregion": "Middle Africa", "callingcode": "243", "tld": ".cd", "relevance": 0, "region": "Africa", "nationality": "Congolese", "capital": "Kinshasa", "altSpellings": "CD,Congo-Brazzaville,Repubilika ya Kongo"}, {"name": "Cook Islands", "ccn3": 184, "cca3": "COK", "cca2": "CK", "latlng": [-21.23333333, -159.76666666], "languages": ["en"], "currency": "NZD", "subregion": "Polynesia", "callingcode": "682", "tld": ".ck", "relevance": 0.5, "region": "Oceania", "nationality": "Cook Islander", "capital": "Avarua", "altSpellings": "CK"}, {"name": "Costa Rica", "ccn3": 188, "cca3": "CRI", "cca2": "CR", "latlng": [10, -84], "languages": ["es"], "currency": "CRC", "subregion": "Central America", "callingcode": "506", "tld": ".cr", "relevance": 0, "region": "Americas", "nationality": "Costa Rican", "capital": "San Jos\u00e9", "altSpellings": "CR"}, {"name": "C\u00f4te d'Ivoire", "ccn3": 384, "cca3": "CIV", "cca2": "CI", "latlng": [8, -5], "languages": ["fr"], "currency": "XOF", "subregion": "Western Africa", "callingcode": "225", "tld": ".ci", "relevance": 0, "region": "Africa", "nationality": "Ivorian", "capital": "Yamoussoukro", "altSpellings": "CI,Cote,dIvoire"}, {"name": "Croatia", "ccn3": 191, "cca3": "HRV", "cca2": "HR", "latlng": [45.16666666, 15.5], "languages": ["hr"], "currency": "HRK", "subregion": "Southern Europe", "callingcode": "385", "tld": ".hr", "relevance": 0, "region": "Europe", "nationality": "Croatian", "capital": "Zagreb", "altSpellings": "HR,Hrvatska"}, {"name": "Cuba", "ccn3": 192, "cca3": "CUB", "cca2": "CU", "latlng": [21.5, -80], "languages": ["es"], "currency": "CUC,CUP", "subregion": "Caribbean", "callingcode": "53", "tld": ".cu", "relevance": 0, "region": "Americas", "nationality": "Cuban", "capital": "Havana", "altSpellings": "CU"}, {"name": "Cura\u00e7ao", "ccn3": 531, "cca3": "CUW", "cca2": "CW", "latlng": [null, null], "languages": ["nl"], "currency": "ANG", "subregion": "", "callingcode": "5999", "tld": ".cw", "relevance": 0, "region": "", "nationality": "Dutch", "capital": "Willemstad", "altSpellings": "CW,Curacao"}, {"name": "Cyprus", "ccn3": 196, "cca3": "CYP", "cca2": "CY", "latlng": [35, 33], "languages": ["el", "tr", "hy"], "currency": "EUR", "subregion": "Western Asia", "callingcode": "357", "tld": ".cy", "relevance": 0, "region": "Asia", "nationality": "Cypriot", "capital": "Nicosia", "altSpellings": "CY,K\u00fdpros"}, {"name": "Czech Republic", "ccn3": 203, "cca3": "CZE", "cca2": "CZ", "latlng": [49.75, 15.5], "languages": ["cs", "sk"], "currency": "CZK", "subregion": "Eastern Europe", "callingcode": "420", "tld": ".cz", "relevance": 0, "region": "Europe", "nationality": "Czech", "capital": "Prague", "altSpellings": "CZ,\u010cesk\u00e1 republika,\u010cesko"}, {"name": "Denmark", "ccn3": 208, "cca3": "DNK", "cca2": "DK", "latlng": [56, 10], "languages": ["da"], "currency": "DKK", "subregion": "Northern Europe", "callingcode": "45", "tld": ".dk", "relevance": 1.5, "region": "Europe", "nationality": "Danish", "capital": "Copenhagen", "altSpellings": "DK,Danmark"}, {"name": "Djibouti", "ccn3": 262, "cca3": "DJI", "cca2": "DJ", "latlng": [11.5, 43], "languages": ["ar", "fr"], "currency": "DJF", "subregion": "Eastern Africa", "callingcode": "253", "tld": ".dj", "relevance": 0, "region": "Africa", "nationality": "Djibouti", "capital": "Djibouti", "altSpellings": "DJ,Jabuuti,Gabuuti"}, {"name": "Dominica", "ccn3": 212, "cca3": "DMA", "cca2": "DM", "latlng": [15.41666666, -61.33333333], "languages": ["en"], "currency": "XCD", "subregion": "Caribbean", "callingcode": "1767", "tld": ".dm", "relevance": 0.5, "region": "Americas", "nationality": "Dominican", "capital": "Roseau", "altSpellings": "DM,Dominique"}, {"name": "Dominican Republic", "ccn3": 214, "cca3": "DOM", "cca2": "DO", "latlng": [19, -70.66666666], "languages": ["es"], "currency": "DOP", "subregion": "Caribbean", "callingcode": "1809,1829,1849", "tld": ".do", "relevance": 0, "region": "Americas", "nationality": "Dominican", "capital": "Santo Domingo", "altSpellings": "DO"}, {"name": "Ecuador", "ccn3": 218, "cca3": "ECU", "cca2": "EC", "latlng": [-2, -77.5], "languages": ["es"], "currency": "USD", "subregion": "South America", "callingcode": "593", "tld": ".ec", "relevance": 0, "region": "Americas", "nationality": "Ecuadorean", "capital": "Quito", "altSpellings": "EC"}, {"name": "Egypt", "ccn3": 818, "cca3": "EGY", "cca2": "EG", "latlng": [27, 30], "languages": ["ar"], "currency": "EGP", "subregion": "Northern Africa", "callingcode": "20", "tld": ".eg", "relevance": 1.5, "region": "Africa", "nationality": "Egyptian", "capital": "Cairo", "altSpellings": "EG"}, {"name": "El Salvador", "ccn3": 222, "cca3": "SLV", "cca2": "SV", "latlng": [13.83333333, -88.91666666], "languages": ["es"], "currency": "SVC,USD", "subregion": "Central America", "callingcode": "503", "tld": ".sv", "relevance": 0, "region": "Americas", "nationality": "Salvadoran", "capital": "San Salvador", "altSpellings": "SV"}, {"name": "Equatorial Guinea", "ccn3": 226, "cca3": "GNQ", "cca2": "GQ", "latlng": [2, 10], "languages": ["es", "fr"], "currency": "XAF", "subregion": "Middle Africa", "callingcode": "240", "tld": ".gq", "relevance": 0, "region": "Africa", "nationality": "Equatorial Guinean", "capital": "Malabo", "altSpellings": "GQ"}, {"name": "Eritrea", "ccn3": 232, "cca3": "ERI", "cca2": "ER", "latlng": [15, 39], "languages": ["en", "ar", "ti"], "currency": "ERN", "subregion": "Eastern Africa", "callingcode": "291", "tld": ".er", "relevance": 0, "region": "Africa", "nationality": "Eritrean", "capital": "Asmara", "altSpellings": "ER"}, {"name": "Estonia", "ccn3": 233, "cca3": "EST", "cca2": "EE", "latlng": [59, 26], "languages": ["et"], "currency": "EUR", "subregion": "Northern Europe", "callingcode": "372", "tld": ".ee", "relevance": 0, "region": "Europe", "nationality": "Estonian", "capital": "Tallinn", "altSpellings": "EE,Eesti"}, {"name": "Ethiopia", "ccn3": 231, "cca3": "ETH", "cca2": "ET", "latlng": [8, 38], "languages": ["am"], "currency": "ETB", "subregion": "Eastern Africa", "callingcode": "251", "tld": ".et", "relevance": 0, "region": "Africa", "nationality": "Ethiopian", "capital": "Addis Ababa", "altSpellings": "ET"}, {"name": "Falkland Islands (Malvinas)", "ccn3": 238, "cca3": "FLK", "cca2": "FK", "latlng": [-51.75, -59], "languages": ["en"], "currency": "FKP", "subregion": "South America", "callingcode": "500", "tld": ".fk", "relevance": 0.5, "region": "Americas", "nationality": "Falkland Islander", "capital": "Stanley", "altSpellings": "FK"}, {"name": "Faroe Islands", "ccn3": 234, "cca3": "FRO", "cca2": "FO", "latlng": [62, -7], "languages": ["fo"], "currency": "DKK", "subregion": "Northern Europe", "callingcode": "298", "tld": ".fo", "relevance": 0.5, "region": "Europe", "nationality": "Faroese", "capital": "T\u00f3rshavn", "altSpellings": "FO,F\u00f8royar,F\u00e6r\u00f8erne"}, {"name": "Fiji", "ccn3": 242, "cca3": "FJI", "cca2": "FJ", "latlng": [-18, 175], "languages": ["en", "fj", "hi", "ur"], "currency": "FJD", "subregion": "Melanesia", "callingcode": "679", "tld": ".fj", "relevance": 0, "region": "Oceania", "nationality": "Fijian", "capital": "Suva", "altSpellings": "FJ,Viti"}, {"name": "Finland", "ccn3": 246, "cca3": "FIN", "cca2": "FI", "latlng": [64, 26], "languages": ["fi", "sv"], "currency": "EUR", "subregion": "Northern Europe", "callingcode": "358", "tld": ".fi", "relevance": 0, "region": "Europe", "nationality": "Finnish", "capital": "Helsinki", "altSpellings": "FI,Suomi"}, {"name": "France", "ccn3": 250, "cca3": "FRA", "cca2": "FR", "latlng": [46, 2], "languages": ["fr"], "currency": "EUR", "subregion": "Western Europe", "callingcode": "33", "tld": ".fr", "relevance": 2.5, "region": "Europe", "nationality": "French", "capital": "Paris", "altSpellings": "FR,R\u00e9publique fran\u00e7aise"}, {"name": "French Guiana", "ccn3": 254, "cca3": "GUF", "cca2": "GF", "latlng": [4, -53], "languages": ["fr"], "currency": "EUR", "subregion": "South America", "callingcode": "594", "tld": ".gf", "relevance": 0, "region": "Americas", "nationality": "", "capital": "Cayenne", "altSpellings": "GF"}, {"name": "French Polynesia", "ccn3": 258, "cca3": "PYF", "cca2": "PF", "latlng": [-15, -140], "languages": ["fr"], "currency": "XPF", "subregion": "Polynesia", "callingcode": "689", "tld": ".pf", "relevance": 0, "region": "Oceania", "nationality": "French Polynesian", "capital": "Papeete", "altSpellings": "PF,Polyn\u00e9sie fran\u00e7aise"}, {"name": "French Southern Territories", "ccn3": 260, "cca3": "ATF", "cca2": "TF", "latlng": [null, null], "languages": ["fr"], "currency": "EUR", "subregion": "", "callingcode": "", "tld": ".tf", "relevance": 0, "region": "", "nationality": "French", "capital": "Port-Aux-Fran\u00e7ais", "altSpellings": "TF"}, {"name": "Gabon", "ccn3": 266, "cca3": "GAB", "cca2": "GA", "latlng": [-1, 11.75], "languages": ["fr"], "currency": "XAF", "subregion": "Middle Africa", "callingcode": "241", "tld": ".ga", "relevance": 0, "region": "Africa", "nationality": "Gabonese", "capital": "Libreville", "altSpellings": "GA,R\u00e9publique Gabonaise"}, {"name": "Gambia", "ccn3": 270, "cca3": "GMB", "cca2": "GM", "latlng": [13.46666666, -16.56666666], "languages": ["en"], "currency": "GMD", "subregion": "Western Africa", "callingcode": "220", "tld": ".gm", "relevance": 0, "region": "Africa", "nationality": "Gambian", "capital": "Banjul", "altSpellings": "GM"}, {"name": "Georgia", "ccn3": 268, "cca3": "GEO", "cca2": "GE", "latlng": [42, 43.5], "languages": ["ka"], "currency": "GEL", "subregion": "Western Asia", "callingcode": "995", "tld": ".ge", "relevance": 0, "region": "Asia", "nationality": "Georgian", "capital": "Tbilisi", "altSpellings": "GE"}, {"name": "Germany", "ccn3": 276, "cca3": "DEU", "cca2": "DE", "latlng": [51, 9], "languages": ["de"], "currency": "EUR", "subregion": "Western Europe", "callingcode": "49", "tld": ".de", "relevance": 3, "region": "Europe", "nationality": "German", "capital": "Berlin", "altSpellings": "DE,Bundesrepublik,Deutschland"}, {"name": "Ghana", "ccn3": 288, "cca3": "GHA", "cca2": "GH", "latlng": [8, -2], "languages": ["en"], "currency": "GHS", "subregion": "Western Africa", "callingcode": "233", "tld": ".gh", "relevance": 0, "region": "Africa", "nationality": "Ghanaian", "capital": "Accra", "altSpellings": "GH"}, {"name": "Gibraltar", "ccn3": 292, "cca3": "GIB", "cca2": "GI", "latlng": [36.13333333, -5.35], "languages": ["en"], "currency": "GIP", "subregion": "Southern Europe", "callingcode": "350", "tld": ".gi", "relevance": 0.5, "region": "Europe", "nationality": "Gibraltar", "capital": "Gibraltar", "altSpellings": "GI"}, {"name": "Greece", "ccn3": 300, "cca3": "GRC", "cca2": "GR", "latlng": [39, 22], "languages": ["el"], "currency": "EUR", "subregion": "Southern Europe", "callingcode": "30", "tld": ".gr", "relevance": 1.5, "region": "Europe", "nationality": "Greek", "capital": "Athens", "altSpellings": "GR"}, {"name": "Greenland", "ccn3": 304, "cca3": "GRL", "cca2": "GL", "latlng": [72, -40], "languages": ["kl"], "currency": "DKK", "subregion": "Northern America", "callingcode": "299", "tld": ".gl", "relevance": 0.5, "region": "Americas", "nationality": "Greenlandic", "capital": "Nuuk", "altSpellings": "GL,gr\u00f8nland"}, {"name": "Grenada", "ccn3": 308, "cca3": "GRD", "cca2": "GD", "latlng": [12.11666666, -61.66666666], "languages": ["en"], "currency": "XCD", "subregion": "Caribbean", "callingcode": "1473", "tld": ".gd", "relevance": 0, "region": "Americas", "nationality": "Grenadian", "capital": "St. George's", "altSpellings": "GD"}, {"name": "Guadeloupe", "ccn3": 312, "cca3": "GLP", "cca2": "GP", "latlng": [null, null], "languages": ["fr"], "currency": "EUR", "subregion": "Caribbean", "callingcode": "590", "tld": ".gp", "relevance": 0, "region": "Americas", "nationality": "Guadeloupian", "capital": "Basse-Terre", "altSpellings": "GP"}, {"name": "Guam", "ccn3": 316, "cca3": "GUM", "cca2": "GU", "latlng": [13.46666666, 144.78333333], "languages": ["en", "ch", "es"], "currency": "USD", "subregion": "Micronesia", "callingcode": "1671", "tld": ".gu", "relevance": 0, "region": "Oceania", "nationality": "Guamanian", "capital": "Hag\u00e5t\u00f1a", "altSpellings": "GU"}, {"name": "Guatemala", "ccn3": 320, "cca3": "GTM", "cca2": "GT", "latlng": [15.5, -90.25], "languages": ["es"], "currency": "GTQ", "subregion": "Central America", "callingcode": "502", "tld": ".gt", "relevance": 0, "region": "Americas", "nationality": "Guatemalan", "capital": "Guatemala City", "altSpellings": "GT"}, {"name": "Guernsey", "ccn3": 831, "cca3": "GGY", "cca2": "GG", "latlng": [49.46666666, -2.58333333], "languages": ["en", "fr"], "currency": "GBP", "subregion": "Northern Europe", "callingcode": "44", "tld": ".gg", "relevance": 0.5, "region": "Europe", "nationality": "Channel Islander", "capital": "St. Peter Port", "altSpellings": "GG"}, {"name": "Guinea", "ccn3": 324, "cca3": "GIN", "cca2": "GN", "latlng": [11, -10], "languages": ["fr", "ff"], "currency": "GNF", "subregion": "Western Africa", "callingcode": "224", "tld": ".gn", "relevance": 0, "region": "Africa", "nationality": "Guinean", "capital": "Conakry", "altSpellings": "GN"}, {"name": "Guinea-Bissau", "ccn3": 624, "cca3": "GNB", "cca2": "GW", "latlng": [12, -15], "languages": ["pt"], "currency": "XOF", "subregion": "Western Africa", "callingcode": "245", "tld": ".gw", "relevance": 0, "region": "Africa", "nationality": "Guinea-Bissauan", "capital": "Bissau", "altSpellings": "GW"}, {"name": "Guyana", "ccn3": 328, "cca3": "GUY", "cca2": "GY", "latlng": [5, -59], "languages": ["en"], "currency": "GYD", "subregion": "South America", "callingcode": "592", "tld": ".gy", "relevance": 0, "region": "Americas", "nationality": "Guyanese", "capital": "Georgetown", "altSpellings": "GY"}, {"name": "Haiti", "ccn3": 332, "cca3": "HTI", "cca2": "HT", "latlng": [19, -72.41666666], "languages": ["fr", "ht"], "currency": "HTG,USD", "subregion": "Caribbean", "callingcode": "509", "tld": ".ht", "relevance": 0, "region": "Americas", "nationality": "Haitian", "capital": "Port-au-Prince", "altSpellings": "HT"}, {"name": "Heard Island and McDonald Islands", "ccn3": 334, "cca3": "HMD", "cca2": "HM", "latlng": [-53.1, 72.51666666], "languages": ["en"], "currency": "AUD", "subregion": "", "callingcode": "", "tld": ".hm", "relevance": 0, "region": "", "nationality": "Heard and McDonald Islander", "capital": "", "altSpellings": "HM"}, {"name": "Vatican City", "ccn3": 336, "cca3": "VAT", "cca2": "VA", "latlng": [41.9, 12.45], "languages": ["it", "la"], "currency": "EUR", "subregion": "Southern Europe", "callingcode": "39066,379", "tld": ".va", "relevance": 0.5, "region": "Europe", "nationality": "Italian", "capital": "Vatican City", "altSpellings": "VA"}, {"name": "Honduras", "ccn3": 340, "cca3": "HND", "cca2": "HN", "latlng": [15, -86.5], "languages": ["es"], "currency": "HNL", "subregion": "Central America", "callingcode": "504", "tld": ".hn", "relevance": 0, "region": "Americas", "nationality": "Honduran", "capital": "Tegucigalpa", "altSpellings": "HN"}, {"name": "Hong Kong", "ccn3": 344, "cca3": "HKG", "cca2": "HK", "latlng": [22.25, 114.16666666], "languages": ["en", "zh"], "currency": "HKD", "subregion": "Eastern Asia", "callingcode": "852", "tld": ".hk", "relevance": 0, "region": "Asia", "nationality": "Chinese", "capital": "City of Victoria", "altSpellings": "HK"}, {"name": "Hungary", "ccn3": 348, "cca3": "HUN", "cca2": "HU", "latlng": [47, 20], "languages": ["hu"], "currency": "HUF", "subregion": "Eastern Europe", "callingcode": "36", "tld": ".hu", "relevance": 0, "region": "Europe", "nationality": "Hungarian", "capital": "Budapest", "altSpellings": "HU,Magyarorsz\u00e1g"}, {"name": "Iceland", "ccn3": 352, "cca3": "ISL", "cca2": "IS", "latlng": [65, -18], "languages": ["is"], "currency": "ISK", "subregion": "Northern Europe", "callingcode": "354", "tld": ".is", "relevance": 0, "region": "Europe", "nationality": "Icelander", "capital": "Reykjavik", "altSpellings": "IS,Island"}, {"name": "India", "ccn3": 356, "cca3": "IND", "cca2": "IN", "latlng": [20, 77], "languages": ["hi", "en"], "currency": "INR", "subregion": "Southern Asia", "callingcode": "91", "tld": ".in", "relevance": 3, "region": "Asia", "nationality": "Indian", "capital": "New Delhi", "altSpellings": "IN,Hindustan"}, {"name": "Indonesia", "ccn3": 360, "cca3": "IDN", "cca2": "ID", "latlng": [-5, 120], "languages": ["id"], "currency": "IDR", "subregion": "South-Eastern,Asia", "callingcode": "62", "tld": ".id", "relevance": 2, "region": "Asia", "nationality": "Indonesian", "capital": "Jakarta", "altSpellings": "ID"}, {"name": "Iran", "ccn3": 364, "cca3": "IRN", "cca2": "IR", "latlng": [32, 53], "languages": ["fa"], "currency": "IRR", "subregion": "Southern Asia", "callingcode": "98", "tld": ".ir", "relevance": 0, "region": "Asia", "nationality": "Iranian", "capital": "Tehran", "altSpellings": "IR"}, {"name": "Iraq", "ccn3": 368, "cca3": "IRQ", "cca2": "IQ", "latlng": [33, 44], "languages": ["ar"], "currency": "IQD", "subregion": "Western Asia", "callingcode": "964", "tld": ".iq", "relevance": 0, "region": "Asia", "nationality": "Iraqi", "capital": "Baghdad", "altSpellings": "IQ"}, {"name": "Ireland", "ccn3": 372, "cca3": "IRL", "cca2": "IE", "latlng": [53, -8], "languages": ["en", "ga"], "currency": "EUR", "subregion": "Northern Europe", "callingcode": "353", "tld": ".ie", "relevance": 1.2, "region": "Europe", "nationality": "Irish", "capital": "Dublin", "altSpellings": "IE,\u00c9ire"}, {"name": "Isle of Man", "ccn3": 833, "cca3": "IMN", "cca2": "IM", "latlng": [54.25, -4.5], "languages": ["en", "gv"], "currency": "GBP", "subregion": "Northern Europe", "callingcode": "44", "tld": ".im", "relevance": 0.5, "region": "Europe", "nationality": "Manx", "capital": "Douglas", "altSpellings": "IM"}, {"name": "Israel", "ccn3": 376, "cca3": "ISR", "cca2": "IL", "latlng": [31.5, 34.75], "languages": ["he", "ar"], "currency": "ILS", "subregion": "Western Asia", "callingcode": "972", "tld": ".il", "relevance": 0, "region": "Asia", "nationality": "Israeli", "capital": "Jerusalem", "altSpellings": "IL"}, {"name": "Italy", "ccn3": 380, "cca3": "ITA", "cca2": "IT", "latlng": [42.83333333, 12.83333333], "languages": ["it"], "currency": "EUR", "subregion": "Southern Europe", "callingcode": "39", "tld": ".it", "relevance": 2, "region": "Europe", "nationality": "Italian", "capital": "Rome", "altSpellings": "IT,Italia"}, {"name": "Jamaica", "ccn3": 388, "cca3": "JAM", "cca2": "JM", "latlng": [18.25, -77.5], "languages": ["en"], "currency": "JMD", "subregion": "Caribbean", "callingcode": "1876", "tld": ".jm", "relevance": 0, "region": "Americas", "nationality": "Jamaican", "capital": "Kingston", "altSpellings": "JM"}, {"name": "Japan", "ccn3": 392, "cca3": "JPN", "cca2": "JP", "latlng": [36, 138], "languages": ["ja"], "currency": "JPY", "subregion": "Eastern Asia", "callingcode": "81", "tld": ".jp", "relevance": 2.5, "region": "Asia", "nationality": "Japanese", "capital": "Tokyo", "altSpellings": "JP,Nippon,Nihon"}, {"name": "Jersey", "ccn3": 832, "cca3": "JEY", "cca2": "JE", "latlng": [49.25, -2.16666666], "languages": ["en", "fr"], "currency": "GBP", "subregion": "Northern Europe", "callingcode": "44", "tld": ".je", "relevance": 0.5, "region": "Europe", "nationality": "Channel Islander", "capital": "Saint Helier", "altSpellings": "JE"}, {"name": "Jordan", "ccn3": 400, "cca3": "JOR", "cca2": "JO", "latlng": [31, 36], "languages": ["ar"], "currency": "JOD", "subregion": "Western Asia", "callingcode": "962", "tld": ".jo", "relevance": 0, "region": "Asia", "nationality": "Jordanian", "capital": "Amman", "altSpellings": "JO"}, {"name": "Kazakhstan", "ccn3": 398, "cca3": "KAZ", "cca2": "KZ", "latlng": [48, 68], "languages": ["kk", "ru"], "currency": "KZT", "subregion": "Central Asia", "callingcode": "76,77", "tld": ".kz", "relevance": 0, "region": "Asia", "nationality": "Kazakhstani", "capital": "Astana", "altSpellings": "KZ"}, {"name": "Kenya", "ccn3": 404, "cca3": "KEN", "cca2": "KE", "latlng": [1, 38], "languages": ["en", "sw"], "currency": "KES", "subregion": "Eastern Africa", "callingcode": "254", "tld": ".ke", "relevance": 0, "region": "Africa", "nationality": "Kenyan", "capital": "Nairobi", "altSpellings": "KE"}, {"name": "Kiribati", "ccn3": 296, "cca3": "KIR", "cca2": "KI", "latlng": [1.41666666, 173], "languages": ["en"], "currency": "AUD", "subregion": "Micronesia", "callingcode": "686", "tld": ".ki", "relevance": 0, "region": "Oceania", "nationality": "I-Kiribati", "capital": "South Tarawa", "altSpellings": "KI"}, {"name": "Kuwait", "ccn3": 414, "cca3": "KWT", "cca2": "KW", "latlng": [29.5, 45.75], "languages": ["ar"], "currency": "KWD", "subregion": "Western Asia", "callingcode": "965", "tld": ".kw", "relevance": 0, "region": "Asia", "nationality": "Kuwaiti", "capital": "Kuwait City", "altSpellings": "KW"}, {"name": "Kyrgyzstan", "ccn3": 417, "cca3": "KGZ", "cca2": "KG", "latlng": [41, 75], "languages": ["ky", "ru"], "currency": "KGS", "subregion": "Central Asia", "callingcode": "996", "tld": ".kg", "relevance": 0, "region": "Asia", "nationality": "Kirghiz", "capital": "Bishkek", "altSpellings": "KG"}, {"name": "Laos", "ccn3": 418, "cca3": "LAO", "cca2": "LA", "latlng": [18, 105], "languages": ["lo"], "currency": "LAK", "subregion": "South-Eastern,Asia", "callingcode": "856", "tld": ".la", "relevance": 0, "region": "Asia", "nationality": "Laotian", "capital": "Vientiane", "altSpellings": "LA"}, {"name": "Latvia", "ccn3": 428, "cca3": "LVA", "cca2": "LV", "latlng": [57, 25], "languages": ["lv"], "currency": "LVL", "subregion": "Northern Europe", "callingcode": "371", "tld": ".lv", "relevance": 0, "region": "Europe", "nationality": "Latvian", "capital": "Riga", "altSpellings": "LV,Latvija"}, {"name": "Lebanon", "ccn3": 422, "cca3": "LBN", "cca2": "LB", "latlng": [33.83333333, 35.83333333], "languages": ["ar", "fr"], "currency": "LBP", "subregion": "Western Asia", "callingcode": "961", "tld": ".lb", "relevance": 0, "region": "Asia", "nationality": "Lebanese", "capital": "Beirut", "altSpellings": "LB"}, {"name": "Lesotho", "ccn3": 426, "cca3": "LSO", "cca2": "LS", "latlng": [-29.5, 28.5], "languages": ["en", "st"], "currency": "LSL,ZAR", "subregion": "Southern Africa", "callingcode": "266", "tld": ".ls", "relevance": 0, "region": "Africa", "nationality": "Mosotho", "capital": "Maseru", "altSpellings": "LS"}, {"name": "Liberia", "ccn3": 430, "cca3": "LBR", "cca2": "LR", "latlng": [6.5, -9.5], "languages": ["en"], "currency": "LRD", "subregion": "Western Africa", "callingcode": "231", "tld": ".lr", "relevance": 0, "region": "Africa", "nationality": "Liberian", "capital": "Monrovia", "altSpellings": "LR"}, {"name": "Libya", "ccn3": 434, "cca3": "LBY", "cca2": "LY", "latlng": [25, 17], "languages": ["ar"], "currency": "LYD", "subregion": "Northern Africa", "callingcode": "218", "tld": ".ly", "relevance": 0, "region": "Africa", "nationality": "Libyan", "capital": "Tripoli", "altSpellings": "LY"}, {"name": "Liechtenstein", "ccn3": 438, "cca3": "LIE", "cca2": "LI", "latlng": [47.26666666, 9.53333333], "languages": ["de"], "currency": "CHF", "subregion": "Western Europe", "callingcode": "423", "tld": ".li", "relevance": 0, "region": "Europe", "nationality": "Liechtensteiner", "capital": "Vaduz", "altSpellings": "LI"}, {"name": "Lithuania", "ccn3": 440, "cca3": "LTU", "cca2": "LT", "latlng": [56, 24], "languages": ["lt"], "currency": "LTL", "subregion": "Northern Europe", "callingcode": "370", "tld": ".lt", "relevance": 0, "region": "Europe", "nationality": "Lithuanian", "capital": "Vilnius", "altSpellings": "LT,Lietuva"}, {"name": "Luxembourg", "ccn3": 442, "cca3": "LUX", "cca2": "LU", "latlng": [49.75, 6.16666666], "languages": ["fr", "de", "lb"], "currency": "EUR", "subregion": "Western Europe", "callingcode": "352", "tld": ".lu", "relevance": 0, "region": "Europe", "nationality": "Luxembourger", "capital": "Luxembourg", "altSpellings": "LU"}, {"name": "Macao", "ccn3": 446, "cca3": "MAC", "cca2": "MO", "latlng": [22.16666666, 113.55], "languages": ["zh", "pt"], "currency": "MOP", "subregion": "Eastern Asia", "callingcode": "853", "tld": ".mo", "relevance": 0, "region": "Asia", "nationality": "Chinese", "capital": "", "altSpellings": "MO"}, {"name": "Macedonia", "ccn3": 807, "cca3": "MKD", "cca2": "MK", "latlng": [41.83333333, 22], "languages": ["mk"], "currency": "MKD", "subregion": "Southern Europe", "callingcode": "389", "tld": ".mk", "relevance": 0, "region": "Europe", "nationality": "Macedonian", "capital": "Skopje", "altSpellings": "MK"}, {"name": "Madagascar", "ccn3": 450, "cca3": "MDG", "cca2": "MG", "latlng": [-20, 47], "languages": ["fr", "mg"], "currency": "MGA", "subregion": "Eastern Africa", "callingcode": "261", "tld": ".mg", "relevance": 0, "region": "Africa", "nationality": "Malagasy", "capital": "Antananarivo", "altSpellings": "MG,Madagasikara"}, {"name": "Malawi", "ccn3": 454, "cca3": "MWI", "cca2": "MW", "latlng": [-13.5, 34], "languages": ["en", "ny"], "currency": "MWK", "subregion": "Eastern Africa", "callingcode": "265", "tld": ".mw", "relevance": 0, "region": "Africa", "nationality": "Malawian", "capital": "Lilongwe", "altSpellings": "MW"}, {"name": "Malaysia", "ccn3": 458, "cca3": "MYS", "cca2": "MY", "latlng": [2.5, 112.5], "languages": ["en"], "currency": "MYR", "subregion": "South-Eastern,Asia", "callingcode": "60", "tld": ".my", "relevance": 0, "region": "Asia", "nationality": "Malaysian", "capital": "Kuala Lumpur", "altSpellings": "MY"}, {"name": "Maldives", "ccn3": 462, "cca3": "MDV", "cca2": "MV", "latlng": [3.25, 73], "languages": ["dv"], "currency": "MVR", "subregion": "Southern Asia", "callingcode": "960", "tld": ".mv", "relevance": 0, "region": "Asia", "nationality": "Maldivan", "capital": "Mal\u00e9", "altSpellings": "MV"}, {"name": "Mali", "ccn3": 466, "cca3": "MLI", "cca2": "ML", "latlng": [17, -4], "languages": ["fr"], "currency": "XOF", "subregion": "Western Africa", "callingcode": "223", "tld": ".ml", "relevance": 0, "region": "Africa", "nationality": "Malian", "capital": "Bamako", "altSpellings": "ML"}, {"name": "Malta", "ccn3": 470, "cca3": "MLT", "cca2": "MT", "latlng": [35.83333333, 14.58333333], "languages": ["mt", "en"], "currency": "EUR", "subregion": "Southern Europe", "callingcode": "356", "tld": ".mt", "relevance": 0, "region": "Europe", "nationality": "Maltese", "capital": "Valletta", "altSpellings": "MT"}, {"name": "Marshall Islands", "ccn3": 584, "cca3": "MHL", "cca2": "MH", "latlng": [9, 168], "languages": ["en", "mh"], "currency": "USD", "subregion": "Micronesia", "callingcode": "692", "tld": ".mh", "relevance": 0.5, "region": "Oceania", "nationality": "Marshallese", "capital": "Majuro", "altSpellings": "MH"}, {"name": "Martinique", "ccn3": 474, "cca3": "MTQ", "cca2": "MQ", "latlng": [null, null], "languages": ["fr"], "currency": "EUR", "subregion": "Caribbean", "callingcode": "596", "tld": ".mq", "relevance": 0, "region": "Americas", "nationality": "French", "capital": "Fort-de-France", "altSpellings": "MQ"}, {"name": "Mauritania", "ccn3": 478, "cca3": "MRT", "cca2": "MR", "latlng": [20, -12], "languages": ["ar", "fr"], "currency": "MRO", "subregion": "Western Africa", "callingcode": "222", "tld": ".mr", "relevance": 0, "region": "Africa", "nationality": "Mauritanian", "capital": "Nouakchott", "altSpellings": "MR"}, {"name": "Mauritius", "ccn3": 480, "cca3": "MUS", "cca2": "MU", "latlng": [-20.28333333, 57.55], "languages": ["en"], "currency": "MUR", "subregion": "Eastern Africa", "callingcode": "230", "tld": ".mu", "relevance": 0, "region": "Africa", "nationality": "Mauritian", "capital": "Port Louis", "altSpellings": "MU"}, {"name": "Mayotte", "ccn3": 175, "cca3": "MYT", "cca2": "YT", "latlng": [-12.83333333, 45.16666666], "languages": ["fr"], "currency": "EUR", "subregion": "Eastern Africa", "callingcode": "262", "tld": ".yt", "relevance": 0, "region": "Africa", "nationality": "French", "capital": "Mamoudzou", "altSpellings": "YT"}, {"name": "Mexico", "ccn3": 484, "cca3": "MEX", "cca2": "MX", "latlng": [23, -102], "languages": ["es"], "currency": "MXN,MXV", "subregion": "Central America", "callingcode": "52", "tld": ".mx", "relevance": 1.5, "region": "Americas", "nationality": "Mexican", "capital": "Mexico City", "altSpellings": "MX,Mexicanos"}, {"name": "Micronesia", "ccn3": 583, "cca3": "FSM", "cca2": "FM", "latlng": [6.91666666, 158.25], "languages": ["en"], "currency": "USD", "subregion": "Micronesia", "callingcode": "691", "tld": ".fm", "relevance": 0, "region": "Oceania", "nationality": "Micronesian", "capital": "", "altSpellings": "FM"}, {"name": "Moldova", "ccn3": 498, "cca3": "MDA", "cca2": "MD", "latlng": [47, 29], "languages": ["ro"], "currency": "MDL", "subregion": "Eastern Europe", "callingcode": "373", "tld": ".md", "relevance": 0, "region": "Europe", "nationality": "Moldovan", "capital": "Chisinau", "altSpellings": "MD"}, {"name": "Monaco", "ccn3": 492, "cca3": "MCO", "cca2": "MC", "latlng": [43.73333333, 7.4], "languages": ["fr"], "currency": "EUR", "subregion": "Western Europe", "callingcode": "377", "tld": ".mc", "relevance": 0, "region": "Europe", "nationality": "Monegasque", "capital": "Monaco", "altSpellings": "MC"}, {"name": "Mongolia", "ccn3": 496, "cca3": "MNG", "cca2": "MN", "latlng": [46, 105], "languages": ["mn"], "currency": "MNT", "subregion": "Eastern Asia", "callingcode": "976", "tld": ".mn", "relevance": 0, "region": "Asia", "nationality": "Mongolian", "capital": "Ulan Bator", "altSpellings": "MN"}, {"name": "Montenegro", "ccn3": 499, "cca3": "MNE", "cca2": "ME", "latlng": [42.5, 19.3], "languages": ["sr", "bs", "sq", "hr"], "currency": "EUR", "subregion": "Southern Europe", "callingcode": "382", "tld": ".me", "relevance": 0, "region": "Europe", "nationality": "Montenegrin", "capital": "Podgorica", "altSpellings": "ME"}, {"name": "Montserrat", "ccn3": 500, "cca3": "MSR", "cca2": "MS", "latlng": [16.75, -62.2], "languages": ["en"], "currency": "XCD", "subregion": "Caribbean", "callingcode": "1664", "tld": ".ms", "relevance": 0.5, "region": "Americas", "nationality": "Montserratian", "capital": "Plymouth", "altSpellings": "MS"}, {"name": "Morocco", "ccn3": 504, "cca3": "MAR", "cca2": "MA", "latlng": [32, -5], "languages": ["ar"], "currency": "MAD", "subregion": "Northern Africa", "callingcode": "212", "tld": ".ma", "relevance": 0, "region": "Africa", "nationality": "Moroccan", "capital": "Rabat", "altSpellings": "MA"}, {"name": "Mozambique", "ccn3": 508, "cca3": "MOZ", "cca2": "MZ", "latlng": [-18.25, 35], "languages": ["pt"], "currency": "MZN", "subregion": "Eastern Africa", "callingcode": "258", "tld": ".mz", "relevance": 0, "region": "Africa", "nationality": "Mozambican", "capital": "Maputo", "altSpellings": "MZ,Mo\u00e7ambique"}, {"name": "Myanmar (Burma)", "ccn3": 104, "cca3": "MMR", "cca2": "MM", "latlng": [22, 98], "languages": ["my"], "currency": "MMK", "subregion": "South-Eastern,Asia", "callingcode": "95", "tld": ".mm", "relevance": 0, "region": "Asia", "nationality": "Myanmarian", "capital": "Naypyidaw", "altSpellings": "MM"}, {"name": "Namibia", "ccn3": 516, "cca3": "NAM", "cca2": "NA", "latlng": [-22, 17], "languages": ["en", "af"], "currency": "NAD,ZAR", "subregion": "Southern Africa", "callingcode": "264", "tld": ".na", "relevance": 0, "region": "Africa", "nationality": "Namibian", "capital": "Windhoek", "altSpellings": "NA,Namibi\u00eb"}, {"name": "Nauru", "ccn3": 520, "cca3": "NRU", "cca2": "NR", "latlng": [-0.53333333, 166.91666666], "languages": ["en", "na"], "currency": "AUD", "subregion": "Micronesia", "callingcode": "674", "tld": ".nr", "relevance": 0.5, "region": "Oceania", "nationality": "Nauruan", "capital": "Yaren", "altSpellings": "NR,Naoero"}, {"name": "Nepal", "ccn3": 524, "cca3": "NPL", "cca2": "NP", "latlng": [28, 84], "languages": ["ne"], "currency": "NPR", "subregion": "Southern Asia", "callingcode": "977", "tld": ".np", "relevance": 0, "region": "Asia", "nationality": "Nepalese", "capital": "Kathmandu", "altSpellings": "NP"}, {"name": "Netherlands", "ccn3": 528, "cca3": "NLD", "cca2": "NL", "latlng": [52.5, 5.75], "languages": ["nl"], "currency": "EUR", "subregion": "Western Europe", "callingcode": "31", "tld": ".nl", "relevance": 1.5, "region": "Europe", "nationality": "Dutch", "capital": "Amsterdam", "altSpellings": "NL,Holland,Nederland"}, {"name": "New Caledonia", "ccn3": 540, "cca3": "NCL", "cca2": "NC", "latlng": [-21.5, 165.5], "languages": ["fr"], "currency": "XPF", "subregion": "Melanesia", "callingcode": "687", "tld": ".nc", "relevance": 0.5, "region": "Oceania", "nationality": "New Caledonian", "capital": "Noum\u00e9a", "altSpellings": "NC"}, {"name": "New Zealand", "ccn3": 554, "cca3": "NZL", "cca2": "NZ", "latlng": [-41, 174], "languages": ["en"], "currency": "NZD", "subregion": "Australia,New Zealand", "callingcode": "64", "tld": ".nz", "relevance": 0, "region": "Oceania", "nationality": "New Zealander", "capital": "Wellington", "altSpellings": "NZ,Aotearoa"}, {"name": "Nicaragua", "ccn3": 558, "cca3": "NIC", "cca2": "NI", "latlng": [13, -85], "languages": ["es"], "currency": "NIO", "subregion": "Central America", "callingcode": "505", "tld": ".ni", "relevance": 0, "region": "Americas", "nationality": "Nicaraguan", "capital": "Managua", "altSpellings": "NI"}, {"name": "Niger", "ccn3": 562, "cca3": "NER", "cca2": "NE", "latlng": [16, 8], "languages": ["fr"], "currency": "XOF", "subregion": "Western Africa", "callingcode": "227", "tld": ".ne", "relevance": 0, "region": "Africa", "nationality": "Nigerian", "capital": "Niamey", "altSpellings": "NE,Nijar"}, {"name": "Nigeria", "ccn3": 566, "cca3": "NGA", "cca2": "NG", "latlng": [10, 8], "languages": ["en"], "currency": "NGN", "subregion": "Western Africa", "callingcode": "234", "tld": ".ng", "relevance": 1.5, "region": "Africa", "nationality": "Nigerian", "capital": "Abuja", "altSpellings": "NG,Nijeriya,Na\u00edj\u00edr\u00ed\u00e0"}, {"name": "Niue", "ccn3": 570, "cca3": "NIU", "cca2": "NU", "latlng": [-19.03333333, -169.86666666], "languages": ["en"], "currency": "NZD", "subregion": "Polynesia", "callingcode": "683", "tld": ".nu", "relevance": 0.5, "region": "Oceania", "nationality": "Niuean", "capital": "Alofi", "altSpellings": "NU"}, {"name": "Norfolk Island", "ccn3": 574, "cca3": "NFK", "cca2": "NF", "latlng": [-29.03333333, 167.95], "languages": ["en"], "currency": "AUD", "subregion": "Australia,New Zealand", "callingcode": "672", "tld": ".nf", "relevance": 0.5, "region": "Oceania", "nationality": "Norfolk Islander", "capital": "Kingston", "altSpellings": "NF"}, {"name": "North Korea", "ccn3": 408, "cca3": "PRK", "cca2": "KP", "latlng": [40, 127], "languages": ["ko"], "currency": "KPW", "subregion": "Eastern Asia", "callingcode": "850", "tld": ".kp", "relevance": 0, "region": "Asia", "nationality": "North Korean", "capital": "Pyongyang", "altSpellings": "KP"}, {"name": "Northern Mariana Islands", "ccn3": 580, "cca3": "MNP", "cca2": "MP", "latlng": [15.2, 145.75], "languages": ["en", "ch"], "currency": "USD", "subregion": "Micronesia", "callingcode": "1670", "tld": ".mp", "relevance": 0.5, "region": "Oceania", "nationality": "American", "capital": "Saipan", "altSpellings": "MP"}, {"name": "Norway", "ccn3": 578, "cca3": "NOR", "cca2": "NO", "latlng": [62, 10], "languages": ["no"], "currency": "NOK", "subregion": "Northern Europe", "callingcode": "47", "tld": ".no", "relevance": 1.5, "region": "Europe", "nationality": "Norwegian", "capital": "Oslo", "altSpellings": "NO,Norge,Noreg"}, {"name": "Oman", "ccn3": 512, "cca3": "OMN", "cca2": "OM", "latlng": [21, 57], "languages": ["ar"], "currency": "OMR", "subregion": "Western Asia", "callingcode": "968", "tld": ".om", "relevance": 0, "region": "Asia", "nationality": "Omani", "capital": "Muscat", "altSpellings": "OM"}, {"name": "Pakistan", "ccn3": 586, "cca3": "PAK", "cca2": "PK", "latlng": [30, 70], "languages": ["en", "ur"], "currency": "PKR", "subregion": "Southern Asia", "callingcode": "92", "tld": ".pk", "relevance": 2, "region": "Asia", "nationality": "Pakistani", "capital": "Islamabad", "altSpellings": "PK"}, {"name": "Palau", "ccn3": 585, "cca3": "PLW", "cca2": "PW", "latlng": [7.5, 134.5], "languages": ["en"], "currency": "USD", "subregion": "Micronesia", "callingcode": "680", "tld": ".pw", "relevance": 0.5, "region": "Oceania", "nationality": "Palauan", "capital": "Ngerulmud", "altSpellings": "PW"}, {"name": "Palestinian Territory", "ccn3": 275, "cca3": "PSE", "cca2": "PS", "latlng": [null, null], "languages": ["ar", "he", "en"], "currency": "", "subregion": "Western Asia", "callingcode": "970", "tld": ".ps", "relevance": 0, "region": "Asia", "nationality": "Palestinian", "capital": "Ramallah", "altSpellings": "PS"}, {"name": "Panama", "ccn3": 591, "cca3": "PAN", "cca2": "PA", "latlng": [9, -80], "languages": ["es"], "currency": "PAB,USD", "subregion": "Central America", "callingcode": "507", "tld": ".pa", "relevance": 0, "region": "Americas", "nationality": "Panamanian", "capital": "Panama City", "altSpellings": "PA"}, {"name": "Papua New Guinea", "ccn3": 598, "cca3": "PNG", "cca2": "PG", "latlng": [-6, 147], "languages": ["en"], "currency": "PGK", "subregion": "Melanesia", "callingcode": "675", "tld": ".pg", "relevance": 0, "region": "Oceania", "nationality": "Papua New Guinean", "capital": "Port Moresby", "altSpellings": "PG"}, {"name": "Paraguay", "ccn3": 600, "cca3": "PRY", "cca2": "PY", "latlng": [-23, -58], "languages": ["es", "gn"], "currency": "PYG", "subregion": "South America", "callingcode": "595", "tld": ".py", "relevance": 0, "region": "Americas", "nationality": "Paraguayan", "capital": "Asunci\u00f3n", "altSpellings": "PY"}, {"name": "Peru", "ccn3": 604, "cca3": "PER", "cca2": "PE", "latlng": [-10, -76], "languages": ["es"], "currency": "PEN", "subregion": "South America", "callingcode": "51", "tld": ".pe", "relevance": 0, "region": "Americas", "nationality": "Peruvian", "capital": "Lima", "altSpellings": "PE"}, {"name": "Philippines", "ccn3": 608, "cca3": "PHL", "cca2": "PH", "latlng": [13, 122], "languages": ["tl", "en"], "currency": "PHP", "subregion": "South-Eastern,Asia", "callingcode": "63", "tld": ".ph", "relevance": 1.5, "region": "Asia", "nationality": "Filipino", "capital": "Manila", "altSpellings": "PH,Pilipinas"}, {"name": "Pitcairn", "ccn3": 612, "cca3": "PCN", "cca2": "PN", "latlng": [-25.06666666, -130.1], "languages": ["en"], "currency": "NZD", "subregion": "Polynesia", "callingcode": "64", "tld": ".pn", "relevance": 0.5, "region": "Oceania", "nationality": "Pitcairn Islander", "capital": "Adamstown", "altSpellings": "PN"}, {"name": "Poland", "ccn3": 616, "cca3": "POL", "cca2": "PL", "latlng": [52, 20], "languages": ["pl"], "currency": "PLN", "subregion": "Eastern Europe", "callingcode": "48", "tld": ".pl", "relevance": 1.25, "region": "Europe", "nationality": "Polish", "capital": "Warsaw", "altSpellings": "PL,Polska"}, {"name": "Portugal", "ccn3": 620, "cca3": "PRT", "cca2": "PT", "latlng": [39.5, -8], "languages": ["pt"], "currency": "EUR", "subregion": "Southern Europe", "callingcode": "351", "tld": ".pt", "relevance": 1.5, "region": "Europe", "nationality": "Portuguese", "capital": "Lisbon", "altSpellings": "PT,Portuguesa"}, {"name": "Puerto Rico", "ccn3": 630, "cca3": "PRI", "cca2": "PR", "latlng": [18.25, -66.5], "languages": ["es", "en"], "currency": "USD", "subregion": "Caribbean", "callingcode": "1787,1939", "tld": ".pr", "relevance": 0, "region": "Americas", "nationality": "Puerto Rican", "capital": "San Juan", "altSpellings": "PR"}, {"name": "Qatar", "ccn3": 634, "cca3": "QAT", "cca2": "QA", "latlng": [25.5, 51.25], "languages": ["ar"], "currency": "QAR", "subregion": "Western Asia", "callingcode": "974", "tld": ".qa", "relevance": 0, "region": "Asia", "nationality": "Qatari", "capital": "Doha", "altSpellings": "QA"}, {"name": "R\u00e9union", "ccn3": 638, "cca3": "REU", "cca2": "RE", "latlng": [null, null], "languages": ["fr"], "currency": "EUR", "subregion": "Eastern Africa", "callingcode": "262", "tld": ".re", "relevance": 0, "region": "Africa", "nationality": "French", "capital": "", "altSpellings": "RE,Reunion"}, {"name": "Romania", "ccn3": 642, "cca3": "ROU", "cca2": "RO", "latlng": [46, 25], "languages": ["ro"], "currency": "RON", "subregion": "Eastern Europe", "callingcode": "40", "tld": ".ro", "relevance": 0, "region": "Europe", "nationality": "Romanian", "capital": "Bucharest", "altSpellings": "RO,Rumania,Roumania,Rom\u00e2nia"}, {"name": "Russian Federation", "ccn3": 643, "cca3": "RUS", "cca2": "RU", "latlng": [60, 100], "languages": ["ru"], "currency": "RUB", "subregion": "Eastern Europe", "callingcode": "7", "tld": ".ru", "relevance": 2.5, "region": "Europe", "nationality": "Russian", "capital": "Moscow", "altSpellings": "RU,Rossiya"}, {"name": "Rwanda", "ccn3": 646, "cca3": "RWA", "cca2": "RW", "latlng": [-2, 30], "languages": ["rw", "en", "fr"], "currency": "RWF", "subregion": "Eastern Africa", "callingcode": "250", "tld": ".rw", "relevance": 0, "region": "Africa", "nationality": "Rwandan", "capital": "Kigali", "altSpellings": "RW"}, {"name": "Saint Barth\u00e9lemy", "ccn3": 652, "cca3": "BLM", "cca2": "BL", "latlng": [18.5, -63.41666666], "languages": ["fr"], "currency": "EUR", "subregion": "Caribbean", "callingcode": "590", "tld": ".bl", "relevance": 0, "region": "Americas", "nationality": "Saint Barth\u00e9lemy Islander", "capital": "Gustavia", "altSpellings": "BL,St. Barthelemy"}, {"name": "Saint Helena", "ccn3": 654, "cca3": "SHN", "cca2": "SH", "latlng": [-15.95, -5.7], "languages": ["en"], "currency": "SHP", "subregion": "Western Africa", "callingcode": "290", "tld": ".sh", "relevance": 0, "region": "Africa", "nationality": "Saint Helenian", "capital": "Jamestown", "altSpellings": "SH,St."}, {"name": "Saint Kitts and Nevis", "ccn3": 659, "cca3": "KNA", "cca2": "KN", "latlng": [17.33333333, -62.75], "languages": ["en"], "currency": "XCD", "subregion": "Caribbean", "callingcode": "1869", "tld": ".kn", "relevance": 0, "region": "Americas", "nationality": "Kittian and Nevisian", "capital": "Basseterre", "altSpellings": "KN,St."}, {"name": "Saint Lucia", "ccn3": 662, "cca3": "LCA", "cca2": "LC", "latlng": [13.88333333, -60.96666666], "languages": ["en"], "currency": "XCD", "subregion": "Caribbean", "callingcode": "1758", "tld": ".lc", "relevance": 0, "region": "Americas", "nationality": "Saint Lucian", "capital": "Castries", "altSpellings": "LC,St."}, {"name": "Saint Martin", "ccn3": 663, "cca3": "MAF", "cca2": "MF", "latlng": [18.08333333, -63.95], "languages": ["en", "fr", "nl"], "currency": "EUR", "subregion": "Caribbean", "callingcode": "590", "tld": ".mf", "relevance": 0, "region": "Americas", "nationality": "Saint Martin Islander", "capital": "Marigot", "altSpellings": "MF,St."}, {"name": "Saint Pierre and Miquelon", "ccn3": 666, "cca3": "SPM", "cca2": "PM", "latlng": [46.83333333, -56.33333333], "languages": ["fr"], "currency": "EUR", "subregion": "Northern America", "callingcode": "508", "tld": ".pm", "relevance": 0, "region": "Americas", "nationality": "French", "capital": "Saint-Pierre", "altSpellings": "PM,St."}, {"name": "Saint Vincent and the Grenadines", "ccn3": 670, "cca3": "VCT", "cca2": "VC", "latlng": [13.25, -61.2], "languages": ["en"], "currency": "XCD", "subregion": "Caribbean", "callingcode": "1784", "tld": ".vc", "relevance": 0, "region": "Americas", "nationality": "Saint Vincentian", "capital": "Kingstown", "altSpellings": "VC,St."}, {"name": "Samoa", "ccn3": 882, "cca3": "WSM", "cca2": "WS", "latlng": [-13.58333333, -172.33333333], "languages": ["sm", "en"], "currency": "WST", "subregion": "Polynesia", "callingcode": "685", "tld": ".ws", "relevance": 0, "region": "Oceania", "nationality": "Samoan", "capital": "Apia", "altSpellings": "WS"}, {"name": "San Marino", "ccn3": 674, "cca3": "SMR", "cca2": "SM", "latlng": [43.76666666, 12.41666666], "languages": ["it"], "currency": "EUR", "subregion": "Southern Europe", "callingcode": "378", "tld": ".sm", "relevance": 0, "region": "Europe", "nationality": "Sammarinese", "capital": "City of San Marino", "altSpellings": "SM"}, {"name": "S\u00e3o Tom\u00e9 and Pr\u00edncipe", "ccn3": 678, "cca3": "STP", "cca2": "ST", "latlng": [1, 7], "languages": ["pt"], "currency": "STD", "subregion": "Middle Africa", "callingcode": "239", "tld": ".st", "relevance": 0, "region": "Africa", "nationality": "Sao Tomean", "capital": "S\u00e3o Tom\u00e9", "altSpellings": "ST"}, {"name": "Saudi Arabia", "ccn3": 682, "cca3": "SAU", "cca2": "SA", "latlng": [25, 45], "languages": ["ar"], "currency": "SAR", "subregion": "Western Asia", "callingcode": "966", "tld": ".sa", "relevance": 0, "region": "Asia", "nationality": "Saudi Arabian", "capital": "Riyadh", "altSpellings": "SA"}, {"name": "Senegal", "ccn3": 686, "cca3": "SEN", "cca2": "SN", "latlng": [14, -14], "languages": ["fr"], "currency": "XOF", "subregion": "Western Africa", "callingcode": "221", "tld": ".sn", "relevance": 0, "region": "Africa", "nationality": "Senegalese", "capital": "Dakar", "altSpellings": "SN,S\u00e9n\u00e9gal"}, {"name": "Serbia", "ccn3": 688, "cca3": "SRB", "cca2": "RS", "latlng": [44, 21], "languages": ["sr"], "currency": "RSD", "subregion": "Southern Europe", "callingcode": "381", "tld": ".rs", "relevance": 0, "region": "Europe", "nationality": "Serbian", "capital": "Belgrade", "altSpellings": "RS,Srbija"}, {"name": "Seychelles", "ccn3": 690, "cca3": "SYC", "cca2": "SC", "latlng": [-4.58333333, 55.66666666], "languages": ["fr", "en"], "currency": "SCR", "subregion": "Eastern Africa", "callingcode": "248", "tld": ".sc", "relevance": 0.5, "region": "Africa", "nationality": "Seychellois", "capital": "Victoria", "altSpellings": "SC"}, {"name": "Sierra Leone", "ccn3": 694, "cca3": "SLE", "cca2": "SL", "latlng": [8.5, -11.5], "languages": ["en"], "currency": "SLL", "subregion": "Western Africa", "callingcode": "232", "tld": ".sl", "relevance": 0, "region": "Africa", "nationality": "Sierra Leonean", "capital": "Freetown", "altSpellings": "SL"}, {"name": "Singapore", "ccn3": 702, "cca3": "SGP", "cca2": "SG", "latlng": [1.36666666, 103.8], "languages": ["en", "ms", "ta"], "currency": "SGD", "subregion": "South-Eastern,Asia", "callingcode": "65", "tld": ".sg", "relevance": 0, "region": "Asia", "nationality": "Singaporean", "capital": "Singapore", "altSpellings": "SG,Singapura"}, {"name": "Sint Maarten", "ccn3": 534, "cca3": "SXM", "cca2": "SX", "latlng": [null, null], "languages": ["nl", "en"], "currency": "ANG", "subregion": "", "callingcode": "1721", "tld": ".sx", "relevance": 0, "region": "", "nationality": "Dutch", "capital": "Philipsburg", "altSpellings": "SX"}, {"name": "Slovakia", "ccn3": 703, "cca3": "SVK", "cca2": "SK", "latlng": [48.66666666, 19.5], "languages": ["sk"], "currency": "EUR", "subregion": "Eastern Europe", "callingcode": "421", "tld": ".sk", "relevance": 0, "region": "Europe", "nationality": "Slovak", "capital": "Bratislava", "altSpellings": "SK,Slovensk\u00e1 republika,Slovensko"}, {"name": "Slovenia", "ccn3": 705, "cca3": "SVN", "cca2": "SI", "latlng": [46.11666666, 14.81666666], "languages": ["sl"], "currency": "EUR", "subregion": "Southern Europe", "callingcode": "386", "tld": ".si", "relevance": 0, "region": "Europe", "nationality": "Slovene", "capital": "Ljubljana", "altSpellings": "SI,Slovenija"}, {"name": "Solomon Islands", "ccn3": 90, "cca3": "SLB", "cca2": "SB", "latlng": [-8, 159], "languages": ["en"], "currency": "SBD", "subregion": "Melanesia", "callingcode": "677", "tld": ".sb", "relevance": 0, "region": "Oceania", "nationality": "Solomon Islander", "capital": "Honiara", "altSpellings": "SB"}, {"name": "Somalia", "ccn3": 706, "cca3": "SOM", "cca2": "SO", "latlng": [10, 49], "languages": ["so", "ar"], "currency": "SOS", "subregion": "Eastern Africa", "callingcode": "252", "tld": ".so", "relevance": 0, "region": "Africa", "nationality": "Somali", "capital": "Mogadishu", "altSpellings": "SO"}, {"name": "South Africa", "ccn3": 710, "cca3": "ZAF", "cca2": "ZA", "latlng": [-29, 24], "languages": ["af", "en", "nr", "st", "ss", "tn", "ts", "ve", "xh", "zu"], "currency": "ZAR", "subregion": "Southern Africa", "callingcode": "27", "tld": ".za", "relevance": 0, "region": "Africa", "nationality": "South African", "capital": "Cape Town", "altSpellings": "ZA,RSA,Suid-Afrika"}, {"name": "South Georgia", "ccn3": 239, "cca3": "SGS", "cca2": "GS", "latlng": [-54.5, -37], "languages": ["en"], "currency": "GBP", "subregion": "South America", "callingcode": "500", "tld": ".gs", "relevance": 0, "region": "Americas", "nationality": "South Georgia and the South Sandwich Islander", "capital": "", "altSpellings": "GS"}, {"name": "South Korea", "ccn3": 410, "cca3": "KOR", "cca2": "KR", "latlng": [37, 127.5], "languages": ["ko"], "currency": "KRW", "subregion": "Eastern Asia", "callingcode": "82", "tld": ".kr", "relevance": 1.5, "region": "Asia", "nationality": "South Korean", "capital": "Seoul", "altSpellings": "KR"}, {"name": "South Sudan", "ccn3": 728, "cca3": "SSD", "cca2": "SS", "latlng": [7, 30], "languages": ["ar", "en"], "currency": "SSP", "subregion": "", "callingcode": "211", "tld": ".ss", "relevance": 0, "region": "", "nationality": "South Sudanese", "capital": "Juba", "altSpellings": "SS"}, {"name": "Spain", "ccn3": 724, "cca3": "ESP", "cca2": "ES", "latlng": [40, -4], "languages": ["es"], "currency": "EUR", "subregion": "Southern Europe", "callingcode": "34", "tld": ".es", "relevance": 2, "region": "Europe", "nationality": "Spanish", "capital": "Madrid", "altSpellings": "ES,Espa\u00f1a"}, {"name": "Sri Lanka", "ccn3": 144, "cca3": "LKA", "cca2": "LK", "latlng": [7, 81], "languages": ["si", "ta"], "currency": "LKR", "subregion": "Southern Asia", "callingcode": "94", "tld": ".lk", "relevance": 0, "region": "Asia", "nationality": "Sri Lankan", "capital": "Colombo", "altSpellings": "LK"}, {"name": "Sudan", "ccn3": 729, "cca3": "SDN", "cca2": "SD", "latlng": [15, 30], "languages": ["ar", "en"], "currency": "SDG", "subregion": "Northern Africa", "callingcode": "249", "tld": ".sd", "relevance": 0, "region": "Africa", "nationality": "Sudanese", "capital": "Khartoum", "altSpellings": "SD"}, {"name": "Suriname", "ccn3": 740, "cca3": "SUR", "cca2": "SR", "latlng": [4, -56], "languages": ["nl"], "currency": "SRD", "subregion": "South America", "callingcode": "597", "tld": ".sr", "relevance": 0, "region": "Americas", "nationality": "Surinamer", "capital": "Paramaribo", "altSpellings": "SR,Sarnam,Sranangron"}, {"name": "Svalbard and Jan Mayen", "ccn3": 744, "cca3": "SJM", "cca2": "SJ", "latlng": [78, 20], "languages": ["no"], "currency": "NOK", "subregion": "Northern Europe", "callingcode": "4779", "tld": ".sj", "relevance": 0.5, "region": "Europe", "nationality": "Norwegian", "capital": "Longyearbyen", "altSpellings": "SJ"}, {"name": "Swaziland", "ccn3": 748, "cca3": "SWZ", "cca2": "SZ", "latlng": [-26.5, 31.5], "languages": ["en", "ss"], "currency": "SZL", "subregion": "Southern Africa", "callingcode": "268", "tld": ".sz", "relevance": 0, "region": "Africa", "nationality": "Swazi", "capital": "Lobamba", "altSpellings": "SZ,weSwatini,Swatini,Ngwane"}, {"name": "Sweden", "ccn3": 752, "cca3": "SWE", "cca2": "SE", "latlng": [62, 15], "languages": ["sv"], "currency": "SEK", "subregion": "Northern Europe", "callingcode": "46", "tld": ".se", "relevance": 1.5, "region": "Europe", "nationality": "Swedish", "capital": "Stockholm", "altSpellings": "SE,Sverige"}, {"name": "Switzerland", "ccn3": 756, "cca3": "CHE", "cca2": "CH", "latlng": [47, 8], "languages": ["de", "fr", "it"], "currency": "CHE,CHF,CHW", "subregion": "Western Europe", "callingcode": "41", "tld": ".ch", "relevance": 1.5, "region": "Europe", "nationality": "Swiss", "capital": "Bern", "altSpellings": "CH,Swiss Confederation,Schweiz,Suisse,Svizzera,Svizra"}, {"name": "Syrian Arab Republic", "ccn3": 760, "cca3": "SYR", "cca2": "SY", "latlng": [35, 38], "languages": ["ar"], "currency": "SYP", "subregion": "Western Asia", "callingcode": "963", "tld": ".sy", "relevance": 0, "region": "Asia", "nationality": "Syrian", "capital": "Damascus", "altSpellings": "SY,Syria"}, {"name": "Taiwan", "ccn3": 158, "cca3": "TWN", "cca2": "TW", "latlng": [23.5, 121], "languages": ["zh"], "currency": "TWD", "subregion": "Eastern Asia", "callingcode": "886", "tld": ".tw", "relevance": 0, "region": "Asia", "nationality": "Taiwanese", "capital": "Taipei", "altSpellings": "TW"}, {"name": "Tajikistan", "ccn3": 762, "cca3": "TJK", "cca2": "TJ", "latlng": [39, 71], "languages": ["tg", "ru"], "currency": "TJS", "subregion": "Central Asia", "callingcode": "992", "tld": ".tj", "relevance": 0, "region": "Asia", "nationality": "Tadzhik", "capital": "Dushanbe", "altSpellings": "TJ,To\u00e7ikiston"}, {"name": "Tanzania", "ccn3": 834, "cca3": "TZA", "cca2": "TZ", "latlng": [-6, 35], "languages": ["sw", "en"], "currency": "TZS", "subregion": "Eastern Africa", "callingcode": "255", "tld": ".tz", "relevance": 0, "region": "Africa", "nationality": "Tanzanian", "capital": "Dodoma", "altSpellings": "TZ"}, {"name": "Thailand", "ccn3": 764, "cca3": "THA", "cca2": "TH", "latlng": [15, 100], "languages": ["th"], "currency": "THB", "subregion": "South-Eastern,Asia", "callingcode": "66", "tld": ".th", "relevance": 0, "region": "Asia", "nationality": "Thai", "capital": "Bangkok", "altSpellings": "TH,Prathet,Thai"}, {"name": "Timor-Leste", "ccn3": 626, "cca3": "TLS", "cca2": "TL", "latlng": [-8.83333333, 125.91666666], "languages": ["pt"], "currency": "USD", "subregion": "South-Eastern,Asia", "callingcode": "670", "tld": ".tl", "relevance": 0, "region": "Asia", "nationality": "East Timorese", "capital": "Dili", "altSpellings": "TL"}, {"name": "Togo", "ccn3": 768, "cca3": "TGO", "cca2": "TG", "latlng": [8, 1.16666666], "languages": ["fr"], "currency": "XOF", "subregion": "Western Africa", "callingcode": "228", "tld": ".tg", "relevance": 0, "region": "Africa", "nationality": "Togolese", "capital": "Lom\u00e9", "altSpellings": "TG,Togolese"}, {"name": "Tokelau", "ccn3": 772, "cca3": "TKL", "cca2": "TK", "latlng": [-9, -172], "languages": ["en"], "currency": "NZD", "subregion": "Polynesia", "callingcode": "690", "tld": ".tk", "relevance": 0.5, "region": "Oceania", "nationality": "Tokelauan", "capital": "Fakaofo", "altSpellings": "TK"}, {"name": "Tonga", "ccn3": 776, "cca3": "TON", "cca2": "TO", "latlng": [-20, -175], "languages": ["en", "to"], "currency": "TOP", "subregion": "Polynesia", "callingcode": "676", "tld": ".to", "relevance": 0, "region": "Oceania", "nationality": "Tongan", "capital": "Nuku'alofa", "altSpellings": "TO"}, {"name": "Trinidad and Tobago", "ccn3": 780, "cca3": "TTO", "cca2": "TT", "latlng": [11, -61], "languages": ["en"], "currency": "TTD", "subregion": "Caribbean", "callingcode": "1868", "tld": ".tt", "relevance": 0, "region": "Americas", "nationality": "Trinidadian", "capital": "Port of Spain", "altSpellings": "TT"}, {"name": "Tunisia", "ccn3": 788, "cca3": "TUN", "cca2": "TN", "latlng": [34, 9], "languages": ["ar", "fr"], "currency": "TND", "subregion": "Northern Africa", "callingcode": "216", "tld": ".tn", "relevance": 0, "region": "Africa", "nationality": "Tunisian", "capital": "Tunis", "altSpellings": "TN"}, {"name": "Turkey", "ccn3": 792, "cca3": "TUR", "cca2": "TR", "latlng": [39, 35], "languages": ["tr"], "currency": "TRY", "subregion": "Western Asia", "callingcode": "90", "tld": ".tr", "relevance": 0, "region": "Asia", "nationality": "Turkish", "capital": "Ankara", "altSpellings": "TR,T\u00fcrkiye,Turkiye"}, {"name": "Turkmenistan", "ccn3": 795, "cca3": "TKM", "cca2": "TM", "latlng": [40, 60], "languages": ["tk", "ru"], "currency": "TMT", "subregion": "Central Asia", "callingcode": "993", "tld": ".tm", "relevance": 0, "region": "Asia", "nationality": "Turkmen", "capital": "Ashgabat", "altSpellings": "TM,T\u00fcrkmenistan"}, {"name": "Turks and Caicos Islands", "ccn3": 796, "cca3": "TCA", "cca2": "TC", "latlng": [21.75, -71.58333333], "languages": ["en"], "currency": "USD", "subregion": "Caribbean", "callingcode": "1649", "tld": ".tc", "relevance": 0.5, "region": "Americas", "nationality": "Turks and Caicos Islander", "capital": "Cockburn Town", "altSpellings": "TC"}, {"name": "Tuvalu", "ccn3": 798, "cca3": "TUV", "cca2": "TV", "latlng": [-8, 178], "languages": ["en"], "currency": "AUD", "subregion": "Polynesia", "callingcode": "688", "tld": ".tv", "relevance": 0.5, "region": "Oceania", "nationality": "Tuvaluan", "capital": "Funafuti", "altSpellings": "TV"}, {"name": "Uganda", "ccn3": 800, "cca3": "UGA", "cca2": "UG", "latlng": [1, 32], "languages": ["en", "sw"], "currency": "UGX", "subregion": "Eastern Africa", "callingcode": "256", "tld": ".ug", "relevance": 0, "region": "Africa", "nationality": "Ugandan", "capital": "Kampala", "altSpellings": "UG"}, {"name": "Ukraine", "ccn3": 804, "cca3": "UKR", "cca2": "UA", "latlng": [49, 32], "languages": ["uk"], "currency": "UAH", "subregion": "Eastern Europe", "callingcode": "380", "tld": ".ua", "relevance": 0, "region": "Europe", "nationality": "Ukrainian", "capital": "Kiev", "altSpellings": "UA,Ukrayina"}, {"name": "United Arab Emirates", "ccn3": 784, "cca3": "ARE", "cca2": "AE", "latlng": [24, 54], "languages": ["ar"], "currency": "AED", "subregion": "Western Asia", "callingcode": "971", "tld": ".ae", "relevance": 0, "region": "Asia", "nationality": "Emirian", "capital": "Abu Dhabi", "altSpellings": "AE,UAE"}, {"name": "United Kingdom", "ccn3": 826, "cca3": "GBR", "cca2": "GB", "latlng": [54, -2], "languages": ["en"], "currency": "GBP", "subregion": "Northern Europe", "callingcode": "44", "tld": ".uk", "relevance": 2.5, "region": "Europe", "nationality": "British", "capital": "London", "altSpellings": "UK, United Kingdom of Great Britain and Northern Ireland, Britain"}, {"name": "United States", "ccn3": 840, "cca3": "USA", "cca2": "US", "latlng": [38, -97], "languages": ["en"], "currency": "USD,USN,USS", "subregion": "Northern America", "callingcode": "1", "tld": ".us", "relevance": 3.5, "region": "Americas", "nationality": "American", "capital": "Washington D.C.", "altSpellings": "US,USA,United States of America"}, {"name": "United States Minor Outlying Islands", "ccn3": 581, "cca3": "UMI", "cca2": "UM", "latlng": [null, null], "languages": ["en"], "currency": "USD", "subregion": "Northern America", "callingcode": "", "tld": ".us", "relevance": 0, "region": "Americas", "nationality": "American", "capital": "", "altSpellings": "UM"}, {"name": "Uruguay", "ccn3": 858, "cca3": "URY", "cca2": "UY", "latlng": [-33, -56], "languages": ["es"], "currency": "UYI,UYU", "subregion": "South America", "callingcode": "598", "tld": ".uy", "relevance": 0, "region": "Americas", "nationality": "Uruguayan", "capital": "Montevideo", "altSpellings": "UY"}, {"name": "Uzbekistan", "ccn3": 860, "cca3": "UZB", "cca2": "UZ", "latlng": [41, 64], "languages": ["uz", "ru"], "currency": "UZS", "subregion": "Central Asia", "callingcode": "998", "tld": ".uz", "relevance": 0, "region": "Asia", "nationality": "Uzbekistani", "capital": "Tashkent", "altSpellings": "UZ,O'zbekstan,O\u2018zbekiston"}, {"name": "Vanuatu", "ccn3": 548, "cca3": "VUT", "cca2": "VU", "latlng": [-16, 167], "languages": ["bi", "en", "fr"], "currency": "VUV", "subregion": "Melanesia", "callingcode": "678", "tld": ".vu", "relevance": 0, "region": "Oceania", "nationality": "Ni-Vanuatu", "capital": "Port Vila", "altSpellings": "VU"}, {"name": "Venezuela", "ccn3": 862, "cca3": "VEN", "cca2": "VE", "latlng": [8, -66], "languages": ["es"], "currency": "VEF", "subregion": "South America", "callingcode": "58", "tld": ".ve", "relevance": 0, "region": "Americas", "nationality": "Venezuelan", "capital": "Caracas", "altSpellings": "VE"}, {"name": "Vietnam", "ccn3": 704, "cca3": "VNM", "cca2": "VN", "latlng": [16.16666666, 107.83333333], "languages": ["vi"], "currency": "VND", "subregion": "South-Eastern,Asia", "callingcode": "84", "tld": ".vn", "relevance": 1.5, "region": "Asia", "nationality": "Vietnamese", "capital": "Hanoi", "altSpellings": "VN,Viet,Nam"}, {"name": "Virgin Islands (British)", "ccn3": 92, "cca3": "VGB", "cca2": "VG", "latlng": [null, null], "languages": ["en"], "currency": "USD", "subregion": "Caribbean", "callingcode": "1284", "tld": ".vg", "relevance": 0.5, "region": "Americas", "nationality": "Virgin Islander", "capital": "", "altSpellings": "VG"}, {"name": "Virgin Islands (U.S.)", "ccn3": 850, "cca3": "VIR", "cca2": "VI", "latlng": [null, null], "languages": ["en"], "currency": "USD", "subregion": "Caribbean", "callingcode": "1340", "tld": ".vi", "relevance": 0.5, "region": "Americas", "nationality": "Virgin Islander", "capital": "", "altSpellings": "VI"}, {"name": "Wallis and Futuna", "ccn3": 876, "cca3": "WLF", "cca2": "WF", "latlng": [-13.3, -176.2], "languages": ["fr"], "currency": "XPF", "subregion": "Polynesia", "callingcode": "681", "tld": ".wf", "relevance": 0.5, "region": "Oceania", "nationality": "Wallis and Futuna Islander", "capital": "Mata-Utu", "altSpellings": "WF"}, {"name": "Western Sahara", "ccn3": 732, "cca3": "ESH", "cca2": "EH", "latlng": [24.5, -13], "languages": ["es", "fr"], "currency": "MAD,DZD,MRO", "subregion": "Northern Africa", "callingcode": "212", "tld": ".eh", "relevance": 0, "region": "Africa", "nationality": "Sahrawi", "capital": "El Aai\u00fan", "altSpellings": "EH"}, {"name": "Yemen", "ccn3": 887, "cca3": "YEM", "cca2": "YE", "latlng": [15, 48], "languages": ["ar"], "currency": "YER", "subregion": "Western Asia", "callingcode": "967", "tld": ".ye", "relevance": 0, "region": "Asia", "nationality": "Yemeni", "capital": "Sana'a", "altSpellings": "YE"}, {"name": "Zambia", "ccn3": 894, "cca3": "ZMB", "cca2": "ZM", "latlng": [-15, 30], "languages": ["en"], "currency": "ZMK", "subregion": "Eastern Africa", "callingcode": "260", "tld": ".zm", "relevance": 0, "region": "Africa", "nationality": "Zambian", "capital": "Lusaka", "altSpellings": "ZM"}, {"name": "Zimbabwe", "ccn3": 716, "cca3": "ZWE", "cca2": "ZW", "latlng": [-20, 30], "languages": ["en", "sn", "nd"], "currency": "ZWL", "subregion": "Eastern Africa", "callingcode": "263", "tld": ".zw", "relevance": 0, "region": "Africa", "nationality": "Zimbabwean", "capital": "Harare", "altSpellings": "ZW"}]